{
  "type": "FeatureCollection",
  "features": [
    {
      "type": "Feature",
      "properties": {
        "norad_id": 44873,
        "name": "CSG-1",
        "group": "resource",
        "lat": 23.997142833302775,
        "lon": -14.440193864293626,
        "alt_km": 621.6598476280142,
        "timestamp": "2025-12-06T14:35:36.785242+00:00",
        "meta_object_name": "CSG-1",
        "meta_object_id": "2019-092A",
        "meta_epoch": "2025-12-06T05:47:32.661600",
        "meta_mean_motion": 14.82150489,
        "meta_eccentricity": 0.00014585,
        "meta_inclination": 97.8813,
        "meta_ra_of_asc_node": 161.6633,
        "meta_arg_of_pericenter": 86.5604,
        "meta_mean_anomaly": 273.5776,
        "meta_ephemeris_type": 0,
        "meta_classification_type": "U",
        "meta_norad_cat_id": 44873,
        "meta_element_set_no": 999,
        "meta_rev_at_epoch": 32289,
        "meta_bstar": 0.00016677386,
        "meta_mean_motion_dot": 1.276e-05,
        "meta_mean_motion_ddot": 0,
        "tle_line1": "1 44873U 19092A   25340.24135025  .00001276  00000+0  16677-3 0  9998",
        "tle_line2": "2 44873  97.8813 161.6633 0001458  86.5604 273.5776 14.82150489322890"
      },
      "geometry": {
        "type": "Point",
        "coordinates": [
          -14.440193864293626,
          23.997142833302775
        ]
      }
    },
    {
      "type": "Feature",
      "properties": {
        "norad_id": 46277,
        "name": "NEMO-HD",
        "group": "resource",
        "lat": 64.22451871173149,
        "lon": -124.99011925480642,
        "alt_km": 438.5235169578673,
        "timestamp": "2025-12-06T14:35:36.785252+00:00",
        "meta_object_name": "NEMO-HD",
        "meta_object_id": "2020-061F",
        "meta_epoch": "2025-12-06T06:18:02.120256",
        "meta_mean_motion": 15.40131072,
        "meta_eccentricity": 0.00022275,
        "meta_inclination": 97.222,
        "meta_ra_of_asc_node": 39.4441,
        "meta_arg_of_pericenter": 64.0811,
        "meta_mean_anomaly": 296.0665,
        "meta_ephemeris_type": 0,
        "meta_classification_type": "U",
        "meta_norad_cat_id": 46277,
        "meta_element_set_no": 999,
        "meta_rev_at_epoch": 29224,
        "meta_bstar": 0.0004223404,
        "meta_mean_motion_dot": 0.00016859,
        "meta_mean_motion_ddot": 0,
        "tle_line1": "1 46277U 20061F   25340.26252454  .00016859  00000+0  42234-3 0  9995",
        "tle_line2": "2 46277  97.2220  39.4441 0002227  64.0811 296.0665 15.40131072292245"
      },
      "geometry": {
        "type": "Point",
        "coordinates": [
          -124.99011925480642,
          64.22451871173149
        ]
      }
    },
    {
      "type": "Feature",
      "properties": {
        "norad_id": 46984,
        "name": "SENTINEL-6A",
        "group": "resource",
        "lat": -65.80279150928263,
        "lon": 76.7469864350826,
        "alt_km": 1338.1320533712214,
        "timestamp": "2025-12-06T14:35:36.785263+00:00",
        "meta_object_name": "SENTINEL-6A",
        "meta_object_id": "2020-086A",
        "meta_epoch": "2025-12-06T05:42:38.263968",
        "meta_mean_motion": 12.80930314,
        "meta_eccentricity": 0.00077367,
        "meta_inclination": 66.0392,
        "meta_ra_of_asc_node": 175.8127,
        "meta_arg_of_pericenter": 269.213,
        "meta_mean_anomaly": 90.7999,
        "meta_ephemeris_type": 0,
        "meta_classification_type": "U",
        "meta_norad_cat_id": 46984,
        "meta_element_set_no": 999,
        "meta_rev_at_epoch": 23561,
        "meta_bstar": 9.5367771e-05,
        "meta_mean_motion_dot": -3.9e-07,
        "meta_mean_motion_ddot": 0,
        "tle_line1": "1 46984U 20086A   25340.23794287 -.00000039  00000+0  95368-4 0  9990",
        "tle_line2": "2 46984  66.0392 175.8127 0007736 269.2130  90.7999 12.80930314235617"
      },
      "geometry": {
        "type": "Point",
        "coordinates": [
          76.7469864350826,
          -65.80279150928263
        ]
      }
    },
    {
      "type": "Feature",
      "properties": {
        "norad_id": 48079,
        "name": "GAOFEN-12 02",
        "group": "resource",
        "lat": 81.90907737261087,
        "lon": -106.242087582776,
        "alt_km": 617.6064061526495,
        "timestamp": "2025-12-06T14:35:36.785273+00:00",
        "meta_object_name": "GAOFEN-12 02",
        "meta_object_id": "2021-026A",
        "meta_epoch": "2025-12-06T06:05:06.203328",
        "meta_mean_motion": 14.80663393,
        "meta_eccentricity": 0.00033738,
        "meta_inclination": 97.9848,
        "meta_ra_of_asc_node": 334.2914,
        "meta_arg_of_pericenter": 113.9331,
        "meta_mean_anomaly": 246.2235,
        "meta_ephemeris_type": 0,
        "meta_classification_type": "U",
        "meta_norad_cat_id": 48079,
        "meta_element_set_no": 999,
        "meta_rev_at_epoch": 25321,
        "meta_bstar": 0.00014732071,
        "meta_mean_motion_dot": 1.079e-05,
        "meta_mean_motion_ddot": 0,
        "tle_line1": "1 48079U 21026A   25340.25354402  .00001079  00000+0  14732-3 0  9994",
        "tle_line2": "2 48079  97.9848 334.2914 0003373 113.9331 246.2235 14.80663393253218"
      },
      "geometry": {
        "type": "Point",
        "coordinates": [
          -106.242087582776,
          81.90907737261087
        ]
      }
    },
    {
      "type": "Feature",
      "properties": {
        "norad_id": 48268,
        "name": "PLEIADES NEO 3",
        "group": "resource",
        "lat": 45.7075960600062,
        "lon": -118.685890754498,
        "alt_km": 619.4410667989359,
        "timestamp": "2025-12-06T14:35:36.785283+00:00",
        "meta_object_name": "PLEIADES NEO 3",
        "meta_object_id": "2021-034A",
        "meta_epoch": "2025-12-06T04:16:04.142208",
        "meta_mean_motion": 14.81672128,
        "meta_eccentricity": 0.00012959,
        "meta_inclination": 97.8949,
        "meta_ra_of_asc_node": 52.7129,
        "meta_arg_of_pericenter": 92.6443,
        "meta_mean_anomaly": 267.4918,
        "meta_ephemeris_type": 0,
        "meta_classification_type": "U",
        "meta_norad_cat_id": 48268,
        "meta_element_set_no": 999,
        "meta_rev_at_epoch": 24907,
        "meta_bstar": 2.6562361e-05,
        "meta_mean_motion_dot": 1.57e-06,
        "meta_mean_motion_ddot": 0,
        "tle_line1": "1 48268U 21034A   25340.17782572  .00000157  00000+0  26562-4 0  9998",
        "tle_line2": "2 48268  97.8949  52.7129 0001295  92.6443 267.4918 14.81672128249076"
      },
      "geometry": {
        "type": "Point",
        "coordinates": [
          -118.685890754498,
          45.7075960600062
        ]
      }
    },
    {
      "type": "Feature",
      "properties": {
        "norad_id": 49070,
        "name": "PLEIADES NEO 4",
        "group": "resource",
        "lat": -45.826382311246654,
        "lon": 61.34390749159933,
        "alt_km": 631.5143517021825,
        "timestamp": "2025-12-06T14:35:36.785293+00:00",
        "meta_object_name": "PLEIADES NEO 4",
        "meta_object_id": "2021-073E",
        "meta_epoch": "2025-12-06T06:41:55.292352",
        "meta_mean_motion": 14.81672484,
        "meta_eccentricity": 0.00012565,
        "meta_inclination": 97.8949,
        "meta_ra_of_asc_node": 52.8083,
        "meta_arg_of_pericenter": 96.1827,
        "meta_mean_anomaly": 263.9529,
        "meta_ephemeris_type": 0,
        "meta_classification_type": "U",
        "meta_norad_cat_id": 49070,
        "meta_element_set_no": 999,
        "meta_rev_at_epoch": 23280,
        "meta_bstar": -1.3123123e-05,
        "meta_mean_motion_dot": -1.55e-06,
        "meta_mean_motion_ddot": 0,
        "tle_line1": "1 49070U 21073E   25340.27911218 -.00000155  00000+0 -13123-4 0  9994",
        "tle_line2": "2 49070  97.8949  52.8083 0001256  96.1827 263.9529 14.81672484232807"
      },
      "geometry": {
        "type": "Point",
        "coordinates": [
          61.34390749159933,
          -45.826382311246654
        ]
      }
    },
    {
      "type": "Feature",
      "properties": {
        "norad_id": 49260,
        "name": "LANDSAT 9",
        "group": "resource",
        "lat": 28.018018525205097,
        "lon": -126.78619916157285,
        "alt_km": 700.8706612512142,
        "timestamp": "2025-12-06T14:35:36.785303+00:00",
        "meta_object_name": "LANDSAT 9",
        "meta_object_id": "2021-088A",
        "meta_epoch": "2025-12-06T04:00:43.181280",
        "meta_mean_motion": 14.57119846,
        "meta_eccentricity": 0.00010961,
        "meta_inclination": 98.2101,
        "meta_ra_of_asc_node": 48.3732,
        "meta_arg_of_pericenter": 93.7224,
        "meta_mean_anomaly": 266.4099,
        "meta_ephemeris_type": 0,
        "meta_classification_type": "U",
        "meta_norad_cat_id": 49260,
        "meta_element_set_no": 999,
        "meta_rev_at_epoch": 22289,
        "meta_bstar": 0.00020149552,
        "meta_mean_motion_dot": 8.63e-06,
        "meta_mean_motion_ddot": 0,
        "tle_line1": "1 49260U 21088A   25340.16716645  .00000863  00000+0  20150-3 0  9997",
        "tle_line2": "2 49260  98.2101  48.3732 0001096  93.7224 266.4099 14.57119846222899"
      },
      "geometry": {
        "type": "Point",
        "coordinates": [
          -126.78619916157285,
          28.018018525205097
        ]
      }
    }
  ]
}